IRIDIUM 36 [-]          
1 24967U 97056C   24104.77268692  .00000574  00000+0  18827-3 0  9997
2 24967  86.4010 353.3373 0002097  82.2968 277.8467 14.36720196390540
IRIDIUM 39 [-]          
1 25042U 97069D   24105.29086247  .00001074  00000+0  28453-3 0  9990
2 25042  86.3957  34.8821 0016404 302.2249  57.7363 14.47827864387130
IRIDIUM 38 [-]          
1 25043U 97069E   24104.87008745  .00000772  00000+0  25308-3 0  9991
2 25043  86.3969  53.6737 0004045  77.6197 282.5453 14.37162023384270
IRIDIUM 42 [-]          
1 25077U 97077A   24105.40457868  .00000737  00000+0  24984-3 0  9991
2 25077  86.3963  59.0951 0002911  85.4670 274.6859 14.35471462379669
IRIDIUM 44 [-]          
1 25078U 97077B   24104.90911488  .00000752  00000+0  23599-3 0  9997
2 25078  86.3986  42.3791 0003002  47.9875 312.1579 14.39299935381931
IRIDIUM 45 [-]          
1 25104U 97082A   24104.88053935  .00022264  00000+0  12850-2 0  9993
2 25104  86.3727 252.3881 0166342 113.0755 248.8112 15.01167860387201
IRIDIUM 24 [-]          
1 25105U 97082B   24105.49318919  .00000899  00000+0  27306-3 0  9991
2 25105  86.3874 261.8320 0013183  59.5116 300.7384 14.41065554381705
IRIDIUM 51 [-]          
1 25262U 98018A   24105.50149048  .00020682  00000+0  99822-3 0  9996
2 25262  86.3955 262.1011 0151773  57.9477 303.6397 15.08857164382022
